NORAD_CAT_ID,OBJECT_NAME,OBJECT_TYPE,EPOCH,MEAN_MOTION,ECCENTRICITY,INCLINATION,RA_OF_ASC_NODE,ARG_OF_PERICENTER,MEAN_ANOMALY,BSTAR,MEAN_MOTION_DOT,MEAN_MOTION_DDOT,TLE_LINE0,TLE_LINE1,TLE_LINE2,SEMIMAJOR_AXIS,PERIOD,APOGEE,PERIGEE,DECAYED
53928.0,STARLINK-5009,PAYLOAD,2023-03-09 17:28:23,15.08863668,0.000121,53.2193,183.9708,114.0088,246.1031,0.00013996,1.942e-05,0.0,0 STARLINK-5009,1 53928U 22119AU  23068.72804483  .00001942  00000-0  13996-3 0  9994,2 53928  53.2193 183.9708 0001210 114.0088 246.1031 15.08863668 26099,6917.808,95.436,540.51,538.836,0.0
53928.0,STARLINK-5009,PAYLOAD,2023-03-10 10:57:39,15.08836591,0.0002005,53.2171,180.7057,93.4706,266.6515,-1.8977e-05,-5.9e-06,0.0,0 STARLINK-5009,1 53928U 22119AU  23069.45670843 -.00000590  00000-0 -18977-4 0  9991,2 53928  53.2171 180.7057 0002005  93.4706 266.6515 15.08836591 26209,6917.891,95.438,541.143,538.369,0.0
53928.0,STARLINK-5009,PAYLOAD,2023-03-10 17:19:10,15.08858335,0.0001531,53.2175,179.5142,90.9943,269.1224,0.00012594,1.718e-05,0.0,0 STARLINK-5009,1 53928U 22119AU  23069.72164865  .00001718  00000-0  12594-3 0  9992,2 53928  53.2175 179.5142 0001531  90.9943 269.1224 15.08858335 26241,6917.824,95.436,540.748,538.63,0.0
53928.0,STARLINK-5009,PAYLOAD,2023-03-10 23:40:46,15.08816368,0.0002539,53.2191,178.3248,98.3608,261.7672,-0.00014323,-2.566e-05,0.0,0 STARLINK-5009,1 53928U 22119AU  23069.98664541 -.00002566  00000-0 -14323-3 0  9992,2 53928  53.2191 178.3248 0002539  98.3608 261.7672 15.08816368 26281,6917.953,95.439,541.574,538.061,0.0
53928.0,STARLINK-5009,PAYLOAD,2023-03-11 10:48:27,15.08833316,0.0002004,53.2193,176.2439,120.2783,239.8408,-0.0001064,-1.981e-05,0.0,0 STARLINK-5009,1 53928U 22119AU  23070.45031613 -.00001981  00000-0 -10640-3 0  9992,2 53928  53.2193 176.2439 0002004 120.2783 239.8408 15.08833316 26777,6917.901,95.438,541.152,538.379,0.0
53928.0,STARLINK-5009,PAYLOAD,2023-03-11 17:09:59,15.0884179,0.0001964,53.2196,175.0519,126.6839,233.4334,-0.00014108,-2.533e-05,0.0,0 STARLINK-5009,1 53928U 22119AU  23070.71526979 -.00002533  00000-0 -14108-3 0  9992,2 53928  53.2196 175.0519 0001964 126.6839 233.4334 15.08841790 26393,6917.875,95.437,541.099,538.381,0.0
53928.0,STARLINK-5009,PAYLOAD,2023-03-12 07:28:28,15.08834971,0.0001021,53.2185,172.3746,104.8874,255.2231,-0.00014011,-2.517e-05,0.0,0 STARLINK-5009,1 53928U 22119AU  23071.31144014 -.00002517  00000-0 -14011-3 0  9990,2 53928  53.2185 172.3746 0001021 104.8874 255.2231 15.08834971 26485,6917.896,95.438,540.467,539.054,0.0
53928.0,STARLINK-5009,PAYLOAD,2023-03-12 15:25:22,15.08851361,0.0001032,53.2195,170.8913,108.2656,251.8449,-1.2732e-05,-4.9e-06,0.0,0 STARLINK-5009,1 53928U 22119AU  23071.64262647 -.00000490  00000-0 -12732-4 0  9996,2 53928  53.2195 170.8913 0001032 108.2656 251.8449 15.08851361 26534,6917.846,95.437,540.425,538.997,0.0
53928.0,STARLINK-5009,PAYLOAD,2023-03-13 07:19:16,15.08816125,0.0001265,53.2196,167.9204,114.198,245.9145,0.00012241,1.66e-05,0.0,0 STARLINK-5009,1 53928U 22119AU  23072.30504947  .00001660  00000-0  12241-3 0  9994,2 53928  53.2196 167.9204 0001265 114.1980 245.9145 15.08816125 26636,6917.953,95.439,540.693,538.943,0.0
53928.0,STARLINK-5009,PAYLOAD,2023-03-14 11:56:10,15.08861856,0.0001139,53.2193,162.5658,93.8248,266.2875,0.00015128,2.122e-05,0.0,0 STARLINK-5009,1 53928U 22119AU  23073.49734756  .00002122  00000-0  15128-3 0  9999,2 53928  53.2193 162.5658 0001139  93.8248 266.2875 15.08861856 26814,6917.814,95.436,540.467,538.891,0.0
53928.0,STARLINK-5009,PAYLOAD,2023-03-15 05:25:25,15.08854528,0.0001849,53.2189,159.299,80.257,279.8631,0.00012988,1.78e-05,0.0,0 STARLINK-5009,1 53928U 22119AU  23074.22598689  .00001780  00000-0  12988-3 0  9994,2 53928  53.2189 159.2990 0001849  80.2570 279.8631 15.08854528 26927,6917.836,95.437,540.98,538.422,0.0
53928.0,STARLINK-5009,PAYLOAD,2023-03-15 11:46:57,15.08856405,0.000146,53.218,158.1092,66.1278,293.9867,0.00013057,1.792e-05,0.0,0 STARLINK-5009,1 53928U 22119AU  23074.49094293  .00001792  00000-0  13057-3 0  9996,2 53928  53.2180 158.1092 0001460  66.1278 293.9867 15.08856405 27381,6917.83,95.437,540.705,538.685,0.0
53928.0,STARLINK-5009,PAYLOAD,2023-03-16 11:37:46,15.08837711,0.0001769,53.2186,153.6483,90.0226,270.0969,-0.00019818,-3.441e-05,0.0,0 STARLINK-5009,1 53928U 22119AU  23075.48456143 -.00003441  00000-0 -19818-3 0  9998,2 53928  53.2186 153.6483 0001769  90.0226 270.0969 15.08837711 27111,6917.887,95.438,540.976,538.529,0.0
53928.0,STARLINK-5009,PAYLOAD,2023-03-16 13:13:08,15.08841387,0.000168,53.2182,153.3486,100.1263,259.9919,-0.00019073,-3.322e-05,0.0,0 STARLINK-5009,1 53928U 22119AU  23075.55079784 -.00003322  00000-0 -19073-3 0  9999,2 53928  53.2182 153.3486 0001680 100.1263 259.9919 15.08841387 27545,6917.876,95.437,540.903,538.579,0.0
53928.0,STARLINK-5009,PAYLOAD,2023-03-17 05:07:01,15.08817429,0.0001456,53.2192,150.3731,118.1867,241.9273,-0.00012726,-2.311e-05,0.0,0 STARLINK-5009,1 53928U 22119AU  23076.21321143 -.00002311  00000-0 -12726-3 0  9997,2 53928  53.2192 150.3731 0001456 118.1867 241.9273 15.08817429 27225,6917.949,95.439,540.822,538.807,0.0
53928.0,STARLINK-5009,PAYLOAD,2023-03-17 11:28:34,15.08830724,0.0001506,53.2192,149.1869,91.0308,269.0856,-0.00025394,-4.326e-05,0.0,0 STARLINK-5009,1 53928U 22119AU  23076.47817233 -.00004326  00000-0 -25394-3 0  9998,2 53928  53.2192 149.1869 0001506  91.0308 269.0856 15.08830724 27689,6917.909,95.438,540.816,538.732,0.0
53928.0,STARLINK-5009,PAYLOAD,2023-03-18 11:19:19,15.08844572,0.000165,53.219,144.7273,91.4582,268.6599,0.00027237,4.05e-05,0.0,0 STARLINK-5009,1 53928U 22119AU  23077.47174993  .00004050  00000-0  27237-3 0  9998,2 53928  53.2190 144.7273 0001650  91.4582 268.6599 15.08844572 27411,6917.866,95.437,540.873,538.59,0.0
53928.0,STARLINK-5009,PAYLOAD,2023-03-18 20:51:38,15.08844691,0.0001226,53.2166,142.9413,98.252,261.8611,0.00014049,1.949e-05,0.0,0 STARLINK-5009,1 53928U 22119AU  23077.86919213  .00001949  00000-0  14049-3 0  9994,2 53928  53.2166 142.9413 0001226  98.2520 261.8611 15.08844691 27890,6917.866,95.437,540.579,538.883,0.0
53928.0,STARLINK-5009,PAYLOAD,2023-03-19 04:48:35,15.08825301,0.0001225,53.2186,141.4537,84.5004,275.6128,7.8683e-05,9.64e-06,0.0,0 STARLINK-5009,1 53928U 22119AU  23078.20040977  .00000964  00000-0  78683-4 0  9996,2 53928  53.2186 141.4537 0001225  84.5004 275.6128 15.08825301 27520,6917.925,95.438,540.638,538.943,0.0
53928.0,STARLINK-5009,PAYLOAD,2023-03-19 11:10:07,15.08834883,0.0001606,53.2195,140.269,100.3116,259.8057,0.00019568,2.827e-05,0.0,0 STARLINK-5009,1 53928U 22119AU  23078.46536119  .00002827  00000-0  19568-3 0  9998,2 53928  53.2195 140.2690 0001606 100.3116 259.8057 15.08834883 27565,6917.896,95.438,540.872,538.65,0.0
53928.0,STARLINK-5009,PAYLOAD,2023-03-19 20:42:26,15.0883749,0.0001348,53.2182,138.4824,85.5999,274.5148,9.9384e-05,1.294e-05,0.0,0 STARLINK-5009,1 53928U 22119AU  23078.86280297  .00001294  00000-0  99384-4 0  9997,2 53928  53.2182 138.4824 0001348  85.5999 274.5148 15.08837490 28041,6917.888,95.438,540.686,538.821,0.0
53928.0,STARLINK-5009,PAYLOAD,2023-03-20 09:25:31,15.08839729,0.0001814,53.22,136.1043,93.5371,266.5828,-0.00014676,-2.623e-05,0.0,0 STARLINK-5009,1 53928U 22119AU  23079.39273100 -.00002623  00000-0 -14676-3 0  9990,2 53928  53.2200 136.1043 0001814  93.5371 266.5828 15.08839729 27706,6917.881,95.438,541.001,538.491,0.0
53928.0,STARLINK-5009,PAYLOAD,2023-03-20 20:33:13,15.08841184,0.0001556,53.2188,134.0219,79.6058,280.511,-6.509e-05,-1.324e-05,0.0,0 STARLINK-5009,1 53928U 22119AU  23079.85640626 -.00001324  00000-0 -65090-4 0  9996,2 53928  53.2188 134.0219 0001556  79.6058 280.5110 15.08841184 28195,6917.877,95.437,540.818,538.665,0.0
53928.0,STARLINK-5009,PAYLOAD,2023-03-21 10:51:41,15.08845785,0.0001431,53.2187,131.3462,83.7746,276.3409,1.8733e-05,1e-07,0.0,0 STARLINK-5009,1 53928U 22119AU  23080.45255986  .00000010  00000-0  18733-4 0  9996,2 53928  53.2187 131.3462 0001431  83.7746 276.3409 15.08845785 27864,6917.863,95.437,540.718,538.738,0.0
53928.0,STARLINK-5009,PAYLOAD,2023-03-21 20:24:00,15.08845732,0.0001459,53.219,129.562,85.5254,274.5904,-3.9426e-05,-9.15e-06,0.0,0 STARLINK-5009,1 53928U 22119AU  23080.85000084 -.00000915  00000-0 -39426-4 0  9995,2 53928  53.2190 129.5620 0001459  85.5254 274.5904 15.08845732 28343,6917.863,95.437,540.737,538.719,0.0
53928.0,STARLINK-5009,PAYLOAD,2023-03-22 02:45:33,15.08833959,0.0001553,53.219,128.3729,82.1465,277.9704,6.8002e-05,7.94e-06,0.0,0 STARLINK-5009,1 53928U 22119AU  23081.11496537  .00000794  00000-0  68002-4 0  9992,2 53928  53.2190 128.3729 0001553  82.1465 277.9704 15.08833959 27962,6917.899,95.438,540.838,538.69,0.0
53928.0,STARLINK-5009,PAYLOAD,2023-03-22 20:14:47,15.08839294,0.0001437,53.2191,125.1013,76.0973,284.0179,5.1937e-05,5.39e-06,0.0,0 STARLINK-5009,1 53928U 22119AU  23081.84360404  .00000539  00000-0  51937-4 0  9991,2 53928  53.2191 125.1013 0001437  76.0973 284.0179 15.08839294 28493,6917.883,95.438,540.742,538.753,0.0
53928.0,STARLINK-5009,PAYLOAD,2023-03-23 08:57:52,15.08845966,0.0001557,53.2189,122.7229,72.948,287.1683,-1.2898e-05,-4.93e-06,0.0,0 STARLINK-5009,1 53928U 22119AU  23082.37352247 -.00000493  00000-0 -12898-4 0  9990,2 53928  53.2189 122.7229 0001557  72.9480 287.1683 15.08845966 28153,6917.862,95.437,540.804,538.65,0.0
53928.0,STARLINK-5009,PAYLOAD,2023-03-23 20:05:33,15.08846364,0.0001527,53.2195,120.6415,74.7798,285.3363,5.3641e-05,5.66e-06,0.0,0 STARLINK-5009,1 53928U 22119AU  23082.83719812  .00000566  00000-0  53641-4 0  9996,2 53928  53.2195 120.6415 0001527  74.7798 285.3363 15.08846364 28645,6917.861,95.437,540.782,538.67,0.0
53928.0,STARLINK-5009,PAYLOAD,2023-03-24 08:48:38,15.08856938,0.0001723,53.2192,118.2626,73.7828,286.3354,0.00014245,1.981e-05,0.0,0 STARLINK-5009,1 53928U 22119AU  23083.36710734  .00001981  00000-0  14245-3 0  9997,2 53928  53.2192 118.2626 0001723  73.7828 286.3354 15.08856938 28302,6917.829,95.436,540.886,538.502,0.0
